[Satellite]
VERSION=1.1
NAME=GLOBALSTAR M037
NICKNAME=GLOBALSTAR M037
TLE1=1 25652U 99012D   17186.08249578 -.00000031  00000-0  40563-3 0  9993
TLE2=2 25652  52.0019  26.7235 0000964 215.9363 296.3101 12.62307088844568
